NORAD_CAT_ID,OBJECT_NAME,OBJECT_TYPE,EPOCH,MEAN_MOTION,ECCENTRICITY,INCLINATION,RA_OF_ASC_NODE,ARG_OF_PERICENTER,MEAN_ANOMALY,BSTAR,MEAN_MOTION_DOT,MEAN_MOTION_DDOT,TLE_LINE0,TLE_LINE1,TLE_LINE2,SEMIMAJOR_AXIS,PERIOD,APOGEE,PERIGEE,DECAYED
49735.0,STARLINK-3113,PAYLOAD,2021-12-30 20:26:02,15.17344537,0.0001898,53.2182,187.1087,126.5817,233.5354,-0.0160599999999999,-0.00311157,0.0,0 STARLINK-3113,1 49735U 21115M   21364.85142350 -.00311157  00000-0 -16060-1 0  9996,2 49735  53.2182 187.1087 0001898 126.5817 233.5354 15.17344537  4435,6892.007,94.903,515.18,512.564,0.0
49735.0,STARLINK-3113,PAYLOAD,2021-12-30 22:00:01,15.16346283,0.0001578,53.2175,186.7295,46.2482,310.6392,-0.036082,-0.00663637,0.0,0 STARLINK-3113,1 49735U 21115M   21364.91668981 -.00663637  00000-0 -36082-1 0  9995,2 49735  53.2175 186.7295 0001578  46.2482 310.6392 15.16346283  5556,6895.031,94.965,517.984,515.808,0.0
49735.0,STARLINK-3113,PAYLOAD,2021-12-31 13:50:20,15.16417673,0.0003253,53.218,183.8092,25.3191,334.7963,-0.014651,-0.00277752,0.0,0 STARLINK-3113,1 49735U 21115M   21365.57662377 -.00277752  00000-0 -14651-1 0  9998,2 49735  53.2180 183.8092 0003253  25.3191 334.7963 15.16417673  4543,6894.815,94.961,518.923,514.437,0.0
49735.0,STARLINK-3113,PAYLOAD,2021-12-31 20:10:18,15.15988782,0.000159,53.2184,182.613,117.0698,243.0459,-0.014898,-0.0027889,0.0,0 STARLINK-3113,1 49735U 21115M   21365.84049229 -.00278890  00000-0 -14898-1 0  9990,2 49735  53.2184 182.6130 0001590 117.0698 243.0459 15.15988782  4589,6896.115,94.988,519.077,516.884,0.0
49735.0,STARLINK-3113,PAYLOAD,2022-01-01 06:00:00,15.14480277,0.0001616,53.2174,180.6662,43.997,30.7999,-0.038103,-0.00664446,0.0,0 STARLINK-3113,1 49735U 21115M   22001.25001157 -.00664446  00000-0 -38103-1 0  9992,2 49735  53.2174 180.6662 0001616  43.9970  30.7999 15.14480277  5750,6900.694,95.082,523.674,521.444,0.0
49735.0,STARLINK-3113,PAYLOAD,2022-01-01 15:11:09,15.14872319,0.0002773,53.2195,179.0169,26.3828,333.7307,-0.0083384,-0.00153982,0.0,0 STARLINK-3113,1 49735U 21115M   22001.63275093 -.00153982  00000-0 -83384-2 0  9996,2 49735  53.2195 179.0169 0002773  26.3828 333.7307 15.14872319  4704,6899.503000000002,95.058,523.281,519.455,0.0
49735.0,STARLINK-3113,PAYLOAD,2022-01-01 22:00:00,15.13544081,0.0001727,53.2173,177.6435,44.0087,66.4105,-0.038807,-0.00659379,0.0,0 STARLINK-3113,1 49735U 21115M   22001.91667824 -.00659379  00000-0 -38807-1 0  9994,2 49735  53.2173 177.6435 0001727  44.0087  66.4105 15.13544081  3629,6903.5390000000025,95.141,526.596,524.212,0.0
49735.0,STARLINK-3113,PAYLOAD,2022-01-02 14:00:01,15.12505278,0.000162,53.2175,174.6339,43.6158,100.2311,-0.030587,-0.00507884,0.0,0 STARLINK-3113,1 49735U 21115M   22002.58334491 -.00507884  00000-0 -30587-1 0  9999,2 49735  53.2175 174.6339 0001620  43.6158 100.2311 15.12505278  5966,6906.7,95.206,529.684,527.446,0.0
49735.0,STARLINK-3113,PAYLOAD,2022-01-02 22:00:00,15.12143328,0.00018,53.2172,173.115,44.0055,115.6423,-0.040231,-0.00657323,0.0,0 STARLINK-3113,1 49735U 21115M   22002.91667824 -.00657323  00000-0 -40231-1 0  9996,2 49735  53.2172 173.1150 0001800  44.0055 115.6423 15.12143328  3639,6907.802,95.229,530.91,528.423,0.0
49735.0,STARLINK-3113,PAYLOAD,2022-01-03 14:00:01,15.11214114,0.0001946,53.2176,170.1003,40.9986,148.6642,-0.041738,-0.00664037,0.0,0 STARLINK-3113,1 49735U 21115M   22003.58334491 -.00664037  00000-0 -41738-1 0  9994,2 49735  53.2176 170.1003 0001946  40.9986 148.6642 15.11214114  3636,6910.6330000000025,95.288,533.8430000000002,531.153,0.0
49735.0,STARLINK-3113,PAYLOAD,2022-01-03 22:00:00,15.10743795,0.0001766,53.2172,168.5963,47.3017,156.5285,-0.041829,-0.00657263,0.0,0 STARLINK-3113,1 49735U 21115M   22003.91667824 -.00657263  00000-0 -41829-1 0  9994,2 49735  53.2172 168.5963 0001766  47.3017 156.5285 15.10743795  3636,6912.066999999999,95.317,535.153,532.712,0.0
49735.0,STARLINK-3113,PAYLOAD,2022-01-04 14:00:01,15.09627528,0.0001855,53.2179,165.6017,59.307,171.2654,-0.025923,-0.00399142,0.0,0 STARLINK-3113,1 49735U 21115M   22004.58334491 -.00399142  00000-0 -25923-1 0  9995,2 49735  53.2179 165.6017 0001855  59.3070 171.2654 15.09627528  3606,6915.474,95.388,538.622,536.056,0.0
49735.0,STARLINK-3113,PAYLOAD,2022-01-04 19:20:56,15.10669906,0.0001733,53.2203,164.6903,80.4088,279.7101,-0.01191,-0.00194318,0.0,0 STARLINK-3113,1 49735U 21115M   22004.80620417 -.00194318  00000-0 -11910-1 0  9995,2 49735  53.2203 164.6903 0001733  80.4088 279.7101 15.10669906  5180,6912.293000000002,95.322,535.356,532.96,0.0
49735.0,STARLINK-3113,PAYLOAD,2022-01-04 22:00:00,15.09145248,0.0001833,53.2172,164.1029,48.5766,194.4745,-0.021932,-0.00336195,0.0,0 STARLINK-3113,1 49735U 21115M   22004.91667824 -.00336195  00000-0 -21932-1 0  9996,2 49735  53.2172 164.1029 0001833  48.5766 194.4745 15.09145248  6317,6916.948,95.418,540.08,537.545,0.0
49735.0,STARLINK-3113,PAYLOAD,2022-01-05 06:00:00,15.08906602,0.0001659,53.2178,162.645,42.9732,211.9979,-0.0043217,-0.00068539,0.0,0 STARLINK-3113,1 49735U 21115M   22005.25001157 -.00068539  00000-0 -43217-2 0  9990,2 49735  53.2178 162.6450 0001659  42.9732 211.9979 15.08906602  6368,6917.677,95.433,540.689,538.394,0.0
49735.0,STARLINK-3113,PAYLOAD,2022-01-05 14:00:01,15.08786682,0.0001837,53.2172,161.1265,47.65600000000001,219.002,-0.01114,-0.00173103,0.0,0 STARLINK-3113,1 49735U 21115M   22005.58334491 -.00173103  00000-0 -11140-1 0  9999,2 49735  53.2172 161.1265 0001837  47.6560 219.0020 15.08786682  6415,6918.043000000002,95.441,541.179,538.638,0.0
49735.0,STARLINK-3113,PAYLOAD,2022-01-05 22:00:00,15.08860652,0.0001919,53.2117,159.6826,45.2876,232.9332,-0.001222,-0.00019695,0.0,0 STARLINK-3113,1 49735U 21115M   22005.91667824 -.00019695  00000-0 -12220-2 0  9991,2 49735  53.2117 159.6826 0001919  45.2876 232.9332 15.08860652  6469,6917.816999999999,95.436,541.01,538.355,0.0
49735.0,STARLINK-3113,PAYLOAD,2022-01-06 14:00:01,15.08853899,0.0001827,53.2063,156.6889,47.6195,253.8171,-0.0016349,-0.00026224,0.0,0 STARLINK-3113,1 49735U 21115M   22006.58334491 -.00026224  00000-0 -16349-2 0  9998,2 49735  53.2063 156.6889 0001827  47.6195 253.8171 15.08853899  3592,6917.8380000000025,95.437,540.967,538.439,0.0
49735.0,STARLINK-3113,PAYLOAD,2022-01-06 22:00:00,15.08827703,0.0001935,53.205,155.19299999999996,42.3922,270.6366,0.00098748,0.00015458,0.0,0 STARLINK-3113,1 49735U 21115M   22006.91667824  .00015458  00000-0  98748-3 0  9993,2 49735  53.2050 155.1930 0001935  42.3922 270.6366 15.08827703  3597,6917.918000000002,95.438,541.122,538.444,0.0
49735.0,STARLINK-3113,PAYLOAD,2022-01-07 06:00:00,15.08823292,0.0001747,53.2051,153.6945,47.2488,277.3753,-6.829299999999997e-06,-3.97e-06,0.0,0 STARLINK-3113,1 49735U 21115M   22007.25001157 -.00000397  00000-0 -68293-5 0  9994,2 49735  53.2051 153.6945 0001747  47.2488 277.3753 15.08823292  6663,6917.931,95.439,541.005,538.5880000000002,0.0
49735.0,STARLINK-3113,PAYLOAD,2022-01-07 14:00:01,15.08821192,0.0001846,53.2053,152.1989,44.5047,291.6926,-0.0019321,-0.00030891,0.0,0 STARLINK-3113,1 49735U 21115M   22007.58334491 -.00030891  00000-0 -19321-2 0  9997,2 49735  53.2053 152.1989 0001846  44.5047 291.6926 15.08821192  3595,6917.938,95.439,541.08,538.526,0.0
49735.0,STARLINK-3113,PAYLOAD,2022-01-07 22:00:00,15.0874012,0.0001986,53.2121,150.6481,42.7249,305.0817,0.0059703,0.00095761,0.0,0 STARLINK-3113,1 49735U 21115M   22007.91667824  .00095761  00000-0  59703-2 0  9996,2 49735  53.2121 150.6481 0001986  42.7249 305.0817 15.08740120  3590,6918.186,95.444,541.425,538.677,0.0
49735.0,STARLINK-3113,PAYLOAD,2022-01-08 02:00:01,15.08837021,0.0001916,53.2155,149.8705,45.9642,127.6355,-6.4569e-05,-1.316e-05,0.0,0 STARLINK-3113,1 49735U 21115M   22008.08335648 -.00001316  00000-0 -64569-4 0  9994,2 49735  53.2155 149.8705 0001916  45.9642 127.6355 15.08837021  6798,6917.889,95.438,541.08,538.429,0.0
49735.0,STARLINK-3113,PAYLOAD,2022-01-08 14:00:01,15.08828711,0.0001945,53.2054,147.7088,44.015,326.865,-0.0018137,-0.00029029,0.0,0 STARLINK-3113,1 49735U 21115M   22008.58334491 -.00029029  00000-0 -18137-2 0  9993,2 49735  53.2054 147.7088 0001945  44.0150 326.8650 15.08828711  6868,6917.915,95.438,541.125,538.434,0.0
49735.0,STARLINK-3113,PAYLOAD,2022-01-08 22:00:00,15.08811672,0.0002001,53.2053,146.2126,39.4305,343.0189,0.0014534,0.00022901,0.0,0 STARLINK-3113,1 49735U 21115M   22008.91667824  .00022901  00000-0  14534-2 0  9996,2 49735  53.2053 146.2126 0002001  39.4305 343.0189 15.08811672  3591,6917.967,95.439,541.216,538.448,0.0
49735.0,STARLINK-3113,PAYLOAD,2022-01-09 06:00:00,15.08814427,0.0001778,53.2056,144.7141,43.1613,350.8672,0.0040828,0.00065247,0.0,0 STARLINK-3113,1 49735U 21115M   22009.25001157  .00065247  00000-0  40828-2 0  9990,2 49735  53.2056 144.7141 0001778  43.1613 350.8672 15.08814427  6966,6917.959,95.439,541.054,538.594,0.0
49735.0,STARLINK-3113,PAYLOAD,2022-01-09 14:00:01,15.08865901,0.0001951,53.2057,143.2187,41.1308,4.4903,-0.0016495,-0.00026463,0.0,0 STARLINK-3113,1 49735U 21115M   22009.58334491 -.00026463  00000-0 -16495-2 0  9998,2 49735  53.2057 143.2187 0001951  41.1308   4.4903 15.08865901  3591,6917.801,95.436,541.016,538.317,0.0
49735.0,STARLINK-3113,PAYLOAD,2022-01-09 22:00:00,15.08863268,0.0002019,53.2056,141.7221,37.6992,19.54,-7.4649e-05,-1.477e-05,0.0,0 STARLINK-3113,1 49735U 21115M   22009.91667824 -.00001477  00000-0 -74649-4 0  9999,2 49735  53.2056 141.7221 0002019  37.6992  19.5400 15.08863268  7066,6917.809,95.436,541.071,538.278,0.0
49735.0,STARLINK-3113,PAYLOAD,2022-01-10 14:00:01,15.08866157,0.000193,53.2059,138.7284,38.7943,41.6989,-0.0029752,-0.00047362,0.0,0 STARLINK-3113,1 49735U 21115M   22010.58334491 -.00047362  00000-0 -29752-2 0  9991,2 49735  53.2059 138.7284 0001930  38.7943  41.6989 15.08866157  3584,6917.8,95.436,541.001,538.33,0.0
